{"fetched_at":"2026-03-29T16:36:15Z","count":15609,"tles":[{"name":"STARLINK-11238 [DTC]","line1":"1 60928U 24155E   26087.73655948 -.00000089  00000+0  41250-5 0  9996","line2":"2 60928  53.1605 247.3784 0000956  43.8293 316.2801 15.69705439 91449","category":"Starlink"}]}